GLOBALSTAR M035 [-]     
1 25851U 99037A   23321.81543706 -.00000004  00000+0  22580-2 0  9997
2 25851  51.9953 262.5400 0013748 122.7819 248.6487 11.04527131 32466
GLOBALSTAR M032 [-]     
1 25852U 99037B   23321.76304254 -.00000094  00000+0 -87155-3 0  9995
2 25852  51.9914 127.6957 0007054 274.0644  85.9349 11.19045642 70146
GLOBALSTAR M051 [-]     
1 25853U 99037C   23321.46837052 -.00000070  00000+0  53296-4 0  9993
2 25853  51.9824 354.5515 0001445 258.2440 101.8209 11.42192608 66378
GLOBALSTAR M030 [-]     
1 25854U 99037D   23321.80675657 -.00000112  00000+0 -78428-3 0  9994
2 25854  51.9860 196.5496 0005598  84.8004 275.3452 11.55084810 83323
GLOBALSTAR M048 [-]     
1 25872U 99041A   23321.62153274 -.00000046  00000+0  66040-3 0  9997
2 25872  51.9373 266.8791 0012760 267.3211 263.9890 11.33841133 59460
GLOBALSTAR M026 [-]     
1 25873U 99041B   23321.50804293 -.00000072  00000+0 -27535-3 0  9995
2 25873  52.0048  27.2758 0001362  30.8978 342.7493 11.06828121 84525
GLOBALSTAR M028 [-]     
1 25875U 99041D   23321.69193896 -.00000096  00000+0  27656-4 0  9997
2 25875  51.9604 114.9928 0062632 256.9913 102.3950 12.50544508117926
